[{"OBJECT_NAME":"TRANSPORTER-12 OBJECT AZ","OBJECT_ID":"2025-009AZ","EPOCH":"2026-03-09T17:02:46.667040","MEAN_MOTION":15.30349724,"ECCENTRICITY":9.87e-5,"INCLINATION":97.3981,"RA_OF_ASC_NODE":151.9913,"ARG_OF_PERICENTER":45.3581,"MEAN_ANOMALY":314.774,"EPHEMERIS_TYPE":0,"CLASSIFICATION_TYPE":"U","NORAD_CAT_ID":62656,"ELEMENT_SET_NO":999,"REV_AT_EPOCH":6379,"BSTAR":0.00054902545,"MEAN_MOTION_DOT":0.00016057,"MEAN_MOTION_DDOT":0},{"OBJECT_NAME":"STARLINK-33915","OBJECT_ID":"2025-087M","EPOCH":"2026-03-09T17:16:17.138784","MEAN_MOTION":15.30182486,"ECCENTRICITY":8.876e-5,"INCLINATION":53.1572,"RA_OF_ASC_NODE":219.4555,"ARG_OF_PERICENTER":83.3484,"MEAN_ANOMALY":276.7618,"EPHEMERIS_TYPE":0,"CLASSIFICATION_TYPE":"U","NORAD_CAT_ID":63708,"ELEMENT_SET_NO":999,"REV_AT_EPOCH":4920,"BSTAR":0.00090408464,"MEAN_MOTION_DOT":0.00026498,"MEAN_MOTION_DDOT":0}]
