TRANSPORTER-12 OBJECT AZ
1 62656U 25009AZ  26068.71026235  .00016057  00000+0  54903-3 0  9991
2 62656  97.3981 151.9913 0000987  45.3581 314.7740 15.30349724 63792
STARLINK-33915          
1 63708U 25087M   26068.71964280  .00026498  00000+0  90408-3 0  9997
2 63708  53.1572 219.4555 0000888  83.3484 276.7618 15.30182486 49204
